ONEWEB-0558             
1 56059U 23043P   24361.54395381  .00000181  00000+0  40609-3 0  9992
2 56059  87.9295 351.0992 0001394 100.8318 259.2973 13.21824177 88126
ONEWEB-0559             
1 56060U 23043Q   24361.53292426  .00000177  00000+0  39702-3 0  9996
2 56060  87.9293 351.0963 0001361  77.9382 282.1905 13.21826519 88136
ONEWEB-0566             
1 56061U 23043R   24361.22382476  .00000155  00000+0  34440-3 0  9998
2 56061  87.9292 351.1577 0001240  96.4516 263.6759 13.21824727 87161
ONEWEB-0568             
1 56062U 23043S   24361.18044933  .00000074  00000+0  16064-3 0  9999
2 56062  87.9089 335.9525 0002068  87.5719 272.5649 13.16598071 88188
ONEWEB-0574             
1 56063U 23043T   24361.21752998  .00000094  00000+0  19556-3 0  9992
2 56063  87.9290 351.1501 0001871  91.9526 268.1822 13.21826767 87201
ONEWEB-0575             
1 56064U 23043U   24361.17412628  .00000083  00000+0  18457-3 0  9998
2 56064  87.9091 335.9653 0002213  75.5796 284.5580 13.16596137 88176
ONEWEB-0576             
1 56065U 23043V   24361.00314306  .00000252  00000+0  62609-3 0  9991
2 56065  87.9085 335.9923 0002079  84.4934 275.6434 13.16594093 88148
ONEWEB-0577             
1 56066U 23043W   24361.23745181  .00000140  00000+0  33339-3 0  9990
2 56066  87.9087 335.9458 0002342  70.4736 289.6648 13.16596166 88204
